{
  "norad_id": 62810,
  "name": "STARLINK-32851",
  "history": [
    {
      "epoch": "2026-03-28T20:31:58.546272Z",
      "apogee_km": 476.1326749625514,
      "perigee_km": 474.221970929314,
      "latitude_deg": 1.1237503769142453e-07,
      "longitude_deg": 86.24886392329502,
      "height_km": 475.33794505093215,
      "semi_major_axis_km": 6853.314322945933,
      "eccentricity": 0.0001394,
      "inclination_deg": 53.1576,
      "raan_deg": 220.5128,
      "arg_perigee_deg": 39.4474,
      "mean_anomaly_deg": 320.6628,
      "mean_motion_rev_day": 15.30212642
    },
    {
      "epoch": "2026-03-30T14:51:25.125984Z",
      "apogee_km": 476.1818953323791,
      "perigee_km": 474.31612952435535,
      "latitude_deg": 3.4792839636416053e-05,
      "longitude_deg": 161.456855164027,
      "height_km": 476.1830738876774,
      "semi_major_axis_km": 6853.3860124283665,
      "eccentricity": 0.00013612,
      "inclination_deg": 53.1584,
      "raan_deg": 212.3197,
      "arg_perigee_deg": 92.2296,
      "mean_anomaly_deg": 267.8861,
      "mean_motion_rev_day": 15.30188632
    },
    {
      "epoch": "2026-03-31T08:06:02.432160Z",
      "apogee_km": 475.86385609337503,
      "perigee_km": 474.77004484288136,
      "latitude_deg": 4.410094520039048e-05,
      "longitude_deg": -101.24315282553079,
      "height_km": 475.78767488072964,
      "semi_major_axis_km": 6853.453950468128,
      "eccentricity": 7.98e-05,
      "inclination_deg": 53.1597,
      "raan_deg": 208.9833,
      "arg_perigee_deg": 38.4471,
      "mean_anomaly_deg": 321.6587,
      "mean_motion_rev_day": 15.30165879
    },
    {
      "epoch": "2026-04-01T13:53:01.178304Z",
      "apogee_km": 476.015973741627,
      "perigee_km": 474.01074194692137,
      "latitude_deg": -1.6577756247046035e-05,
      "longitude_deg": 165.02538427616207,
      "height_km": 476.2223317207411,
      "semi_major_axis_km": 6853.150357844274,
      "eccentricity": 0.0001463,
      "inclination_deg": 53.1599,
      "raan_deg": 203.2198,
      "arg_perigee_deg": 108.0738,
      "mean_anomaly_deg": 252.0422,
      "mean_motion_rev_day": 15.30267559
    },
    {
      "epoch": "2026-04-02T13:23:48.819552Z",
      "apogee_km": 476.25504503451884,
      "perigee_km": 474.0149845437645,
      "latitude_deg": -1.6054979164453006e-05,
      "longitude_deg": 166.81002618114445,
      "height_km": 475.5994936620639,
      "semi_major_axis_km": 6853.272014789141,
      "eccentricity": 0.00016343,
      "inclination_deg": 53.1604,
      "raan_deg": 198.6686,
      "arg_perigee_deg": 292.9614,
      "mean_anomaly_deg": 67.1214,
      "mean_motion_rev_day": 15.30226812
    },
    {
      "epoch": "2026-04-03T12:54:36.802944Z",
      "apogee_km": 476.4599179017132,
      "perigee_km": 474.25048908515055,
      "latitude_deg": -8.297948533904596e-06,
      "longitude_deg": 168.5953433312066,
      "height_km": 476.01710996496047,
      "semi_major_axis_km": 6853.492203493432,
      "eccentricity": 0.00016119,
      "inclination_deg": 53.1611,
      "raan_deg": 194.1195,
      "arg_perigee_deg": 77.6728,
      "mean_anomaly_deg": 282.4453,
      "mean_motion_rev_day": 15.30153068
    },
    {
      "epoch": "2026-04-04T15:33:31.766112Z",
      "apogee_km": 476.29338092676153,
      "perigee_km": 473.86186037935386,
      "latitude_deg": -3.0203487374624733e-05,
      "longitude_deg": 122.61469400948364,
      "height_km": 475.32556390425884,
      "semi_major_axis_km": 6853.214620653057,
      "eccentricity": 0.0001774,
      "inclination_deg": 53.1595,
      "raan_deg": 188.9623,
      "arg_perigee_deg": 57.6916,
      "mean_anomaly_deg": 302.4256,
      "mean_motion_rev_day": 15.30246035
    },
    {
      "epoch": "2026-04-05T13:30:16.130016Z",
      "apogee_km": 476.464432413316,
      "perigee_km": 473.7617847005049,
      "latitude_deg": -9.242571070928158e-06,
      "longitude_deg": 148.28348259158065,
      "height_km": 475.24855191579815,
      "semi_major_axis_km": 6853.25010855691,
      "eccentricity": 0.00019718,
      "inclination_deg": 53.1592,
      "raan_deg": 184.7172,
      "arg_perigee_deg": 55.6708,
      "mean_anomaly_deg": 304.4479,
      "mean_motion_rev_day": 15.30234149
    }
  ]
}